{"type": "FeatureCollection", "features": [ {"type": "Feature", "properties": {"norad_id": 34077, "name": "IRIDIUM 33 DEB", "group": "iridium-33-debris", "lat": -70.15577097747538, "lon": 39.91472588785673, "alt_km": 685.8750136009348, "timestamp": "2025-12-16T03:53:27.440254+00:00", "meta": {"OBJECT_NAME": "IRIDIUM 33 DEB", "OBJECT_ID": "1997-051CL", "EPOCH": "2025-12-15T03:52:30.943200", "MEAN_MOTION": 14.64868384, "ECCENTRICITY": 0.00099283, "INCLINATION": 86.3863, "RA_OF_ASC_NODE": 50.4405, "ARG_OF_PERICENTER": 31.4541, "MEAN_ANOMALY": 24.6703, "EPHEMERIS_TYPE": 0, "CLASSIFICATION_TYPE": "U", "NORAD_CAT_ID": 34077, "ELEMENT_SET_NO": 999, "REV_AT_EPOCH": 88368, "BSTAR": 0.00068720311, "MEAN_MOTION_DOT": 3.694e-05, "MEAN_MOTION_DDOT": 0}, "tle": {"line1": "1 34077U 97051CL  25349.16146925  .00003694  00000+0  68720-3 0  9997", "line2": "2 34077  86.3863  50.4405 0009928  31.4541  24.6703 14.64868384883688"}}, "geometry": {"type": "Point", "coordinates": [39.91472588785673, -70.15577097747538]}}, {"type": "Feature", "properties": {"norad_id": 34079, "name": "IRIDIUM 33 DEB", "group": "iridium-33-debris", "lat": 28.084519019549607, "lon": -174.83080264402852, "alt_km": 620.1868643082953, "timestamp": "2025-12-16T03:53:27.440265+00:00", "meta": {"OBJECT_NAME": "IRIDIUM 33 DEB", "OBJECT_ID": "1997-051CN", "EPOCH": "2025-12-15T07:52:02.606880", "MEAN_MOTION": 14.83601624, "ECCENTRICITY": 0.0005294, "INCLINATION": 86.3778, "RA_OF_ASC_NODE": 7.4856, "ARG_OF_PERICENTER": 359.8748, "MEAN_ANOMALY": 18.7249, "EPHEMERIS_TYPE": 0, "CLASSIFICATION_TYPE": "U", "NORAD_CAT_ID": 34079, "ELEMENT_SET_NO": 999, "REV_AT_EPOCH": 89016, "BSTAR": 0.0011079142, "MEAN_MOTION_DOT": 9.162e-05, "MEAN_MOTION_DDOT": 0}, "tle": {"line1": "1 34079U 97051CN  25349.32780795  .00009162  00000+0  11079-2 0  9996", "line2": "2 34079  86.3778   7.4856 0005294 359.8748  18.7249 14.83601624890168"}}, "geometry": {"type": "Point", "coordinates": [-174.83080264402852, 28.084519019549607]}}, {"type": "Feature", "properties": {"norad_id": 34088, "name": "IRIDIUM 33 DEB", "group": "iridium-33-debris", "lat": -19.847797393022933, "lon": 27.844114173522406, "alt_km": 602.6344427293589, "timestamp": "2025-12-16T03:53:27.440276+00:00", "meta": {"OBJECT_NAME": "IRIDIUM 33 DEB", "OBJECT_ID": "1997-051CX", "EPOCH": "2025-12-15T08:43:17.800608", "MEAN_MOTION": 14.91519953, "ECCENTRICITY": 0.0006051, "INCLINATION": 86.3852, "RA_OF_ASC_NODE": 29.5186, "ARG_OF_PERICENTER": 168.2567, "MEAN_ANOMALY": 206.0704, "EPHEMERIS_TYPE": 0, "CLASSIFICATION_TYPE": "U", "NORAD_CAT_ID": 34088, "ELEMENT_SET_NO": 999, "REV_AT_EPOCH": 88781, "BSTAR": 0.0014607296, "MEAN_MOTION_DOT": 0.0001467, "MEAN_MOTION_DDOT": 0}, "tle": {"line1": "1 34088U 97051CX  25349.36340047  .00014670  00000+0  14607-2 0  9992", "line2": "2 34088  86.3852  29.5186 0006051 168.2567 206.0704 14.91519953887813"}}, "geometry": {"type": "Point", "coordinates": [27.844114173522406, -19.847797393022933]}}, {"type": "Feature", "properties": {"norad_id": 34091, "name": "IRIDIUM 33 DEB", "group": "iridium-33-debris", "lat": 48.941115492365846, "lon": 69.47801249961083, "alt_km": 632.9109275233932, "timestamp": "2025-12-16T03:53:27.440287+00:00", "meta": {"OBJECT_NAME": "IRIDIUM 33 DEB", "OBJECT_ID": "1997-051DA", "EPOCH": "2025-12-15T06:36:15.430176", "MEAN_MOTION": 14.82039108, "ECCENTRICITY": 0.00334728, "INCLINATION": 86.3419, "RA_OF_ASC_NODE": 65.6725, "ARG_OF_PERICENTER": 284.0176, "MEAN_ANOMALY": 75.7325, "EPHEMERIS_TYPE": 0, "CLASSIFICATION_TYPE": "U", "NORAD_CAT_ID": 34091, "ELEMENT_SET_NO": 999, "REV_AT_EPOCH": 87904, "BSTAR": 0.0030295558, "MEAN_MOTION_DOT": 0.00024368, "MEAN_MOTION_DDOT": 0}, "tle": {"line1": "1 34091U 97051DA  25349.27517859  .00024368  00000+0  30296-2 0  9990", "line2": "2 34091  86.3419  65.6725 0033472 284.0176  75.7325 14.82039108879041"}}, "geometry": {"type": "Point", "coordinates": [69.47801249961083, 48.941115492365846]}}, {"type": "Feature", "properties": {"norad_id": 34097, "name": "IRIDIUM 33 DEB", "group": "iridium-33-debris", "lat": 77.01635713153107, "lon": 16.648042506272766, "alt_km": 764.536812214772, "timestamp": "2025-12-16T03:53:27.440297+00:00", "meta": {"OBJECT_NAME": "IRIDIUM 33 DEB", "OBJECT_ID": "1997-051DG", "EPOCH": "2025-12-15T00:45:16.242336", "MEAN_MOTION": 14.34797868, "ECCENTRICITY": 0.00823375, "INCLINATION": 86.2008, "RA_OF_ASC_NODE": 0.3968, "ARG_OF_PERICENTER": 354.7232, "MEAN_ANOMALY": 5.3086, "EPHEMERIS_TYPE": 0, "CLASSIFICATION_TYPE": "U", "NORAD_CAT_ID": 34097, "ELEMENT_SET_NO": 999, "REV_AT_EPOCH": 87152, "BSTAR": 0.0010868906, "MEAN_MOTION_DOT": 3.22e-05, "MEAN_MOTION_DDOT": 0}, "tle": {"line1": "1 34097U 97051DG  25349.03143799  .00003220  00000+0  10869-2 0  9996", "line2": "2 34097  86.2008   0.3968 0082337 354.7232   5.3086 14.34797868871526"}}, "geometry": {"type": "Point", "coordinates": [16.648042506272766, 77.01635713153107]}}, {"type": "Feature", "properties": {"norad_id": 34145, "name": "IRIDIUM 33 DEB", "group": "iridium-33-debris", "lat": 77.6604839332981, "lon": -11.365013396808111, "alt_km": 704.0303803118431, "timestamp": "2025-12-16T03:53:27.440308+00:00", "meta": {"OBJECT_NAME": "IRIDIUM 33 DEB", "OBJECT_ID": "1997-051DY", "EPOCH": "2025-12-14T23:13:34.603968", "MEAN_MOTION": 14.42306972, "ECCENTRICITY": 0.00557707, "INCLINATION": 86.2115, "RA_OF_ASC_NODE": 331.535, "ARG_OF_PERICENTER": 86.7447, "MEAN_ANOMALY": 274.0131, "EPHEMERIS_TYPE": 0, "CLASSIFICATION_TYPE": "U", "NORAD_CAT_ID": 34145, "ELEMENT_SET_NO": 999, "REV_AT_EPOCH": 87670, "BSTAR": 0.00084072497, "MEAN_MOTION_DOT": 2.847e-05, "MEAN_MOTION_DDOT": 0}, "tle": {"line1": "1 34145U 97051DY  25348.96776162  .00002847  00000+0  84072-3 0  9999", "line2": "2 34145  86.2115 331.5350 0055770  86.7447 274.0131 14.42306972876706"}}, "geometry": {"type": "Point", "coordinates": [-11.365013396808111, 77.6604839332981]}}, {"type": "Feature", "properties": {"norad_id": 34146, "name": "IRIDIUM 33 DEB", "group": "iridium-33-debris", "lat": 20.942194513728772, "lon": 166.86392114757115, "alt_km": 717.1117807221435, "timestamp": "2025-12-16T03:53:27.440319+00:00", "meta": {"OBJECT_NAME": "IRIDIUM 33 DEB", "OBJECT_ID": "1997-051DZ", "EPOCH": "2025-12-15T00:56:20.311872", "MEAN_MOTION": 14.4906728, "ECCENTRICITY": 0.00257158, "INCLINATION": 86.2837, "RA_OF_ASC_NODE": 348.7851, "ARG_OF_PERICENTER": 213.5044, "MEAN_ANOMALY": 211.0793, "EPHEMERIS_TYPE": 0, "CLASSIFICATION_TYPE": "U", "NORAD_CAT_ID": 34146, "ELEMENT_SET_NO": 999, "REV_AT_EPOCH": 88140, "BSTAR": 0.00068451844, "MEAN_MOTION_DOT": 2.629e-05, "MEAN_MOTION_DDOT": 0}, "tle": {"line1": "1 34146U 97051DZ  25349.03912398  .00002629  00000+0  68452-3 0  9994", "line2": "2 34146  86.2837 348.7851 0025715 213.5044 211.0793 14.49067280881404"}}, "geometry": {"type": "Point", "coordinates": [166.86392114757115, 20.942194513728772]}}, {"type": "Feature", "properties": {"norad_id": 34159, "name": "IRIDIUM 33 DEB", "group": "iridium-33-debris", "lat": 75.55606649215275, "lon": -147.5633709733708, "alt_km": 774.7663291515564, "timestamp": "2025-12-16T03:53:27.440329+00:00", "meta": {"OBJECT_NAME": "IRIDIUM 33 DEB", "OBJECT_ID": "1997-051EN", "EPOCH": "2025-12-15T04:02:07.441152", "MEAN_MOTION": 14.38500361, "ECCENTRICITY": 0.00260031, "INCLINATION": 86.3507, "RA_OF_ASC_NODE": 47.2061, "ARG_OF_PERICENTER": 279.2441, "MEAN_ANOMALY": 80.5816, "EPHEMERIS_TYPE": 0, "CLASSIFICATION_TYPE": "U", "NORAD_CAT_ID": 34159, "ELEMENT_SET_NO": 999, "REV_AT_EPOCH": 87994, "BSTAR": 0.0004355916, "MEAN_MOTION_DOT": 1.354e-05, "MEAN_MOTION_DDOT": 0}, "tle": {"line1": "1 34159U 97051EN  25349.16814168  .00001354  00000+0  43559-3 0  9993", "line2": "2 34159  86.3507  47.2061 0026003 279.2441  80.5816 14.38500361879949"}}, "geometry": {"type": "Point", "coordinates": [-147.5633709733708, 75.55606649215275]}}, {"type": "Feature", "properties": {"norad_id": 34350, "name": "IRIDIUM 33 DEB", "group": "iridium-33-debris", "lat": -37.84649539729939, "lon": -175.8172880382627, "alt_km": 748.1682969453868, "timestamp": "2025-12-16T03:53:27.440340+00:00", "meta": {"OBJECT_NAME": "IRIDIUM 33 DEB", "OBJECT_ID": "1997-051ES", "EPOCH": "2025-12-15T07:01:05.363616", "MEAN_MOTION": 14.45392691, "ECCENTRICITY": 0.00230316, "INCLINATION": 86.3276, "RA_OF_ASC_NODE": 1.6996, "ARG_OF_PERICENTER": 127.2927, "MEAN_ANOMALY": 247.757, "EPHEMERIS_TYPE": 0, "CLASSIFICATION_TYPE": "U", "NORAD_CAT_ID": 34350, "ELEMENT_SET_NO": 999, "REV_AT_EPOCH": 88330, "BSTAR": 0.00033339493, "MEAN_MOTION_DOT": 1.196e-05, "MEAN_MOTION_DDOT": 0}, "tle": {"line1": "1 34350U 97051ES  25349.29242319  .00001196  00000+0  33339-3 0  9992", "line2": "2 34350  86.3276   1.6996 0023031 127.2927 247.7570 14.45392691883307"}}, "geometry": {"type": "Point", "coordinates": [-175.8172880382627, -37.84649539729939]}}, {"type": "Feature", "properties": {"norad_id": 34366, "name": "IRIDIUM 33 DEB", "group": "iridium-33-debris", "lat": -67.32997710305312, "lon": 39.08365676223971, "alt_km": 735.0940571771571, "timestamp": "2025-12-16T03:53:27.440350+00:00", "meta": {"OBJECT_NAME": "IRIDIUM 33 DEB", "OBJECT_ID": "1997-051FJ", "EPOCH": "2025-12-15T05:21:52.451136", "MEAN_MOTION": 14.54081827, "ECCENTRICITY": 0.00226488, "INCLINATION": 86.3701, "RA_OF_ASC_NODE": 48.2333, "ARG_OF_PERICENTER": 131.8237, "MEAN_ANOMALY": 290.4174, "EPHEMERIS_TYPE": 0, "CLASSIFICATION_TYPE": "U", "NORAD_CAT_ID": 34366, "ELEMENT_SET_NO": 999, "REV_AT_EPOCH": 88218, "BSTAR": 0.00070731798, "MEAN_MOTION_DOT": 3.016e-05, "MEAN_MOTION_DDOT": 0}, "tle": {"line1": "1 34366U 97051FJ  25349.22352374  .00003016  00000+0  70732-3 0  9996", "line2": "2 34366  86.3701  48.2333 0022648 131.8237 290.4174 14.54081827882183"}}, "geometry": {"type": "Point", "coordinates": [39.08365676223971, -67.32997710305312]}}]}